NORAD_CAT_ID,OBJECT_NAME,OBJECT_TYPE,EPOCH,MEAN_MOTION,ECCENTRICITY,INCLINATION,RA_OF_ASC_NODE,ARG_OF_PERICENTER,MEAN_ANOMALY,BSTAR,MEAN_MOTION_DOT,MEAN_MOTION_DDOT,TLE_LINE0,TLE_LINE1,TLE_LINE2,SEMIMAJOR_AXIS,PERIOD,APOGEE,PERIGEE,DECAYED
51959.0,STARLINK-3704,PAYLOAD,2022-04-06 14:00:01,15.73209264,0.0001419,53.2161,1.1055,136.993,16.4467,0.00014495,0.00019779,0.0,0 STARLINK-3704,1 51959U 22025D   22096.58334491  .00019779  00000-0  14495-3 0  9995,2 51959  53.2161   1.1055 0001419 136.9930  16.4467 15.73209264  5672,6727.869000000002,91.533,350.68800000000016,348.779,0.0
51959.0,STARLINK-3704,PAYLOAD,2022-04-06 20:00:01,15.73231576,0.0001450999999999,53.2166,359.8689,134.3314,355.8029,-0.0004747,-0.00066805,0.0,0 STARLINK-3704,1 51959U 22025D   22096.83334491 -.00066805  00000-0 -47470-3 0  9996,2 51959  53.2166 359.8689 0001451 134.3314 355.8029 15.73231576  5717,6727.805,91.531,350.646,348.694,0.0
51959.0,STARLINK-3704,PAYLOAD,2022-04-06 22:00:00,15.73228096,0.0001384,53.2165,359.4573,132.8274,109.5438,-0.00058868,-0.00082531,0.0,0 STARLINK-3704,1 51959U 22025D   22096.91667824 -.00082531  00000-0 -58868-3 0  9991,2 51959  53.2165 359.4573 0001384 132.8274 109.5438 15.73228096  3705,6727.815,91.532,350.611,348.749,0.0
51959.0,STARLINK-3704,PAYLOAD,2022-04-07 04:00:00,15.73130741,0.0001142,53.2165,358.2212,130.4591,88.6247,0.00083716,0.00118183,0.0,0 STARLINK-3704,1 51959U 22025D   22097.16667824  .00118183  00000-0  83716-3 0  9990,2 51959  53.2165 358.2212 0001142 130.4591  88.6247 15.73130741  5773,6728.093000000003,91.537,350.726,349.189,0.0
51959.0,STARLINK-3704,PAYLOAD,2022-04-07 14:00:01,15.73167472,0.0001434,53.2163,356.157,135.6126,284.6095,0.0002154,0.00029675,0.0,0 STARLINK-3704,1 51959U 22025D   22097.58334491  .00029675  00000-0  21540-3 0  9991,2 51959  53.2163 356.1570 0001434 135.6126 284.6095 15.73167472  3701,6727.988,91.535,350.8180000000001,348.88800000000015,0.0
51959.0,STARLINK-3704,PAYLOAD,2022-04-07 20:00:01,15.73195926,0.0001538,53.2164,354.9208,130.4949,266.3959,-0.00024702,-0.00035138,0.0,0 STARLINK-3704,1 51959U 22025D   22097.83334491 -.00035138  00000-0 -24702-3 0  9995,2 51959  53.2164 354.9208 0001538 130.4949 266.3959 15.73195926  5878,6727.906999999997,91.533,350.807,348.737,0.0
51959.0,STARLINK-3704,PAYLOAD,2022-04-07 22:00:00,15.73164609,0.0001489,53.2161,354.509,126.9275,22.2007,0.00017344,0.00023753,0.0,0 STARLINK-3704,1 51959U 22025D   22097.91667824  .00023753  00000-0  17344-3 0  9995,2 51959  53.2161 354.5090 0001489 126.9275  22.2007 15.73164609  3681,6727.996,91.535,350.86300000000006,348.8590000000001,0.0
51959.0,STARLINK-3704,PAYLOAD,2022-04-08 06:00:00,15.73240358,0.0001468,53.2154,352.86,124.7673,113.2743,-0.00014184,-0.00020513,0.0,0 STARLINK-3704,1 51959U 22025D   22098.25001157 -.00020513  00000-0 -14184-3 0  9996,2 51959  53.2154 352.8600 0001468 124.7673 113.2743 15.73240358  5941,6727.78,91.531,350.6330000000001,348.657,0.0
51959.0,STARLINK-3704,PAYLOAD,2022-04-08 14:00:03,15.72814817,0.0001643,53.2167,351.19699999999995,123.1379,204.0108,0.0039111,0.00578247,0.0,0 STARLINK-3704,1 51959U 22025D   22098.58336806  .00578247  00000-0  39111-2 0  9990,2 51959  53.2167 351.1970 0001643 123.1379 204.0108 15.72814817  5993,6728.994000000002,91.556,351.964,349.75300000000016,0.0
51959.0,STARLINK-3704,PAYLOAD,2022-04-08 22:00:00,15.73201676,0.0001413,53.216,349.5606,131.3888,284.493,0.00015437,0.00021101,0.0,0 STARLINK-3704,1 51959U 22025D   22098.91667824  .00021101  00000-0  15437-3 0  9992,2 51959  53.2160 349.5606 0001413 131.3888 284.4930 15.73201676  3687,6727.89,91.533,350.706,348.805,0.0
51959.0,STARLINK-3704,PAYLOAD,2022-04-09 06:00:00,15.73209281,0.0001343,53.2159,347.9113,128.1112,16.6966,-0.00011297,-0.0001645,0.0,0 STARLINK-3704,1 51959U 22025D   22099.25001157 -.00016450  00000-0 -11297-3 0  9994,2 51959  53.2159 347.9113 0001343 128.1112  16.6966 15.73209281  6098,6727.869000000002,91.533,350.63699999999994,348.83,0.0
51959.0,STARLINK-3704,PAYLOAD,2022-04-09 14:00:01,15.73155247,0.0001456,53.2159,346.2599,137.0842,96.6549,0.00018146,0.00024874,0.0,0 STARLINK-3704,1 51959U 22025D   22099.58334491  .00024874  00000-0  18146-3 0  9997,2 51959  53.2159 346.2599 0001456 137.0842  96.6549 15.73155247  3704,6728.023,91.536,350.867,348.908,0.0
51959.0,STARLINK-3704,PAYLOAD,2022-04-09 22:00:00,15.73227595,0.0001304,53.2157,344.6122,133.7855,188.8696,-0.00032983,-0.00046707,0.0,0 STARLINK-3704,1 51959U 22025D   22099.91667824 -.00046707  00000-0 -32983-3 0  9999,2 51959  53.2157 344.6122 0001304 133.7855 188.8696 15.73227595  3708,6727.816999999999,91.532,350.559,348.80400000000014,0.0
51959.0,STARLINK-3704,PAYLOAD,2022-04-10 06:00:02,15.73202907,0.0001304,53.2151,342.9627,130.7589,280.9107,0.00051256,0.00071942,0.0,0 STARLINK-3704,1 51959U 22025D   22100.25002315  .00071942  00000-0  51256-3 0  9998,2 51959  53.2151 342.9627 0001304 130.7589 280.9107 15.73202907  6258,6727.887,91.533,350.629,348.875,0.0
51959.0,STARLINK-3704,PAYLOAD,2022-04-10 14:00:01,15.73250528,0.0001555,53.2153,341.3114,138.7359,1.812,-2.6382e-05,-4.33e-05,0.0,0 STARLINK-3704,1 51959U 22025D   22100.58334491 -.00004330  00000-0 -26382-4 0  9999,2 51959  53.2153 341.3114 0001555 138.7359   1.8120 15.73250528  6308,6727.751,91.53,350.662,348.57,0.0
51959.0,STARLINK-3704,PAYLOAD,2022-04-10 22:00:00,15.73270957,0.0001440999999999,53.2156,339.6637,131.4361,98.1236,-0.00048271,-0.00068026,0.0,0 STARLINK-3704,1 51959U 22025D   22100.91667824 -.00068026  00000-0 -48271-3 0  9997,2 51959  53.2156 339.6637 0001441 131.4361  98.1236 15.73270957  3704,6727.693,91.529,350.527,348.588,0.0
51959.0,STARLINK-3704,PAYLOAD,2022-04-11 04:00:01,15.73220135,0.0001357,53.2154,338.4269,127.5015,78.8466,-0.00044585,-0.00062781,0.0,0 STARLINK-3704,1 51959U 22025D   22101.16668981 -.00062781  00000-0 -44585-3 0  9996,2 51959  53.2154 338.4269 0001357 127.5015  78.8466 15.73220135  6399,6727.8380000000025,91.532,350.616,348.79,0.0
51959.0,STARLINK-3704,PAYLOAD,2022-04-11 14:00:01,15.7315989,0.0001603,53.2156,336.3629,133.8463,273.5587,-0.0001028,-0.00014997,0.0,0 STARLINK-3704,1 51959U 22025D   22101.58334491 -.00014997  00000-0 -10280-3 0  9999,2 51959  53.2156 336.3629 0001603 133.8463 273.5587 15.73159890  3708,6728.01,91.536,350.95300000000015,348.796,0.0
51959.0,STARLINK-3704,PAYLOAD,2022-04-11 22:00:00,15.73134906,0.0001238,53.2152,334.7155,136.3528,359.9554,-0.00017119,-0.00024508,0.0,0 STARLINK-3704,1 51959U 22025D   22101.91667824 -.00024508  00000-0 -17119-3 0  9992,2 51959  53.2152 334.7155 0001238 136.3528 359.9554 15.73134906  3685,6728.081,91.537,350.779,349.11300000000006,0.0
51959.0,STARLINK-3704,PAYLOAD,2022-04-12 04:00:00,15.73092681,0.0001109,53.2147,333.4788,138.0577,334.8667,0.00064034,0.00089798,0.0,0 STARLINK-3704,1 51959U 22025D   22102.16667824  .00089798  00000-0  64034-3 0  9998,2 51959  53.2147 333.4788 0001109 138.0577 334.8667 15.73092681  6556,6728.201,91.539,350.81199999999984,349.32,0.0
51959.0,STARLINK-3704,PAYLOAD,2022-04-12 14:00:01,15.73205303,0.000144,53.2148,331.415,141.9738,171.9887,0.00053017,0.00074465,0.0,0 STARLINK-3704,1 51959U 22025D   22102.58334491  .00074465  00000-0  53017-3 0  9999,2 51959  53.2148 331.4150 0001440 141.9738 171.9887 15.73205303  3703,6727.88,91.533,350.714,348.776,0.0
51959.0,STARLINK-3704,PAYLOAD,2022-04-12 20:00:01,15.73213195,0.0001568,53.215,330.1796,129.3412,161.2732,-0.00046709,-0.00065702,0.0,0 STARLINK-3704,1 51959U 22025D   22102.83334491 -.00065702  00000-0 -46709-3 0  9993,2 51959  53.2150 330.1796 0001568 129.3412 161.2732 15.73213195  6665,6727.858,91.532,350.777,348.668,0.0
51959.0,STARLINK-3704,PAYLOAD,2022-04-12 22:00:00,15.73177713,0.0001545,53.215,329.7677,126.9418,275.913,-2.3336e-05,-3.891e-05,0.0,0 STARLINK-3704,1 51959U 22025D   22102.91667824 -.00003891  00000-0 -23336-4 0  9994,2 51959  53.2150 329.7677 0001545 126.9418 275.9130 15.73177713  3691,6727.959,91.534,350.86300000000006,348.784,0.0
51959.0,STARLINK-3704,PAYLOAD,2022-04-13 04:00:00,15.73185009,0.0001436,53.2148,328.5306,124.1684,255.3681,0.00048209,0.00067541,0.0,0 STARLINK-3704,1 51959U 22025D   22103.16667824  .00067541  00000-0  48209-3 0  9997,2 51959  53.2148 328.5306 0001436 124.1684 255.3681 15.73185009  6714,6727.938,91.534,350.769,348.837,0.0
51959.0,STARLINK-3704,PAYLOAD,2022-04-13 14:00:03,15.7320548,0.0001668,53.2176,326.4493,123.2547,97.674,-1.115e-05,-2.185e-05,0.0,0 STARLINK-3704,1 51959U 22025D   22103.58336806 -.00002185  00000-0 -11150-4 0  9997,2 51959  53.2176 326.4493 0001668 123.2547  97.6740 15.73205480  3709,6727.88,91.533,350.867,348.622,0.0
51959.0,STARLINK-3704,PAYLOAD,2022-04-13 22:00:00,15.73276814,0.0001329,53.2145,324.8191,129.2356,180.5129,-0.00011612,-0.00016938,0.0,0 STARLINK-3704,1 51959U 22025D   22103.91667824 -.00016938  00000-0 -11612-3 0  9994,2 51959  53.2145 324.8191 0001329 129.2356 180.5129 15.73276814  3702,6727.676,91.529,350.435,348.647,0.0
51959.0,STARLINK-3704,PAYLOAD,2022-04-14 06:00:00,15.73286269,0.0001264,53.2139,323.1686,135.174,263.5788,-0.00059829,-0.0008406,0.0,0 STARLINK-3704,1 51959U 22025D   22104.25001157 -.00084060  00000-0 -59829-3 0  9996,2 51959  53.2139 323.1686 0001264 135.1740 263.5788 15.73286269  6887,6727.649,91.528,350.365,348.664,0.0
51959.0,STARLINK-3704,PAYLOAD,2022-04-14 14:00:01,15.73178509,0.0001459,53.2141,321.5177,142.0597,345.6501,-8.1719e-06,-1.766e-05,0.0,0 STARLINK-3704,1 51959U 22025D   22104.58334491 -.00001766  00000-0 -81719-5 0  9999,2 51959  53.2141 321.5177 0001459 142.0597 345.6501 15.73178509  6938,6727.956,91.534,350.80300000000005,348.84,0.0
51959.0,STARLINK-3704,PAYLOAD,2022-04-14 22:00:00,15.73167656,0.0001207,53.2142,319.8703,132.2373,84.4125,4.9582e-05,6.335e-05,0.0,0 STARLINK-3704,1 51959U 22025D   22104.91667824  .00006335  00000-0  49582-4 0  9991,2 51959  53.2142 319.8703 0001207 132.2373  84.4125 15.73167656  3712,6727.986999999999,91.535,350.664,349.04,0.0
